{"fetched_at":"2026-07-20T07:40:25.481Z","source":"https://celestrak.org/NORAD/elements/gp.php?GROUP=planet&FORMAT=JSON","constellation":"skysat","records":[{"OBJECT_NAME":"SKYSAT-A","OBJECT_ID":"2013-066C","EPOCH":"2026-07-19T09:33:19.780704","CLASSIFICATION_TYPE":"U","MEAN_MOTION":15.13127903,"ECCENTRICITY":0.00208635,"INCLINATION":97.3798,"RA_OF_ASC_NODE":248.7687,"ARG_OF_PERICENTER":198.3581,"MEAN_ANOMALY":161.69,"EPHEMERIS_TYPE":0,"NORAD_CAT_ID":39418,"ELEMENT_SET_NO":999,"REV_AT_EPOCH":69335,"BSTAR":0.000084469848,"MEAN_MOTION_DOT":0.00001439,"MEAN_MOTION_DDOT":0},{"OBJECT_NAME":"SKYSAT-B","OBJECT_ID":"2014-037D","EPOCH":"2026-07-19T20:55:40.990080","CLASSIFICATION_TYPE":"U","MEAN_MOTION":14.88098127,"ECCENTRICITY":0.000593,"INCLINATION":98.3857,"RA_OF_ASC_NODE":161.7057,"ARG_OF_PERICENTER":158.4103,"MEAN_ANOMALY":201.7363,"EPHEMERIS_TYPE":0,"NORAD_CAT_ID":40072,"ELEMENT_SET_NO":999,"REV_AT_EPOCH":65082,"BSTAR":0.000068683,"MEAN_MOTION_DOT":0.0000057,"MEAN_MOTION_DDOT":0},{"OBJECT_NAME":"SKYSAT-C1","OBJECT_ID":"2016-040C","EPOCH":"2026-07-19T20:13:41.424384","CLASSIFICATION_TYPE":"U","MEAN_MOTION":15.36793049,"ECCENTRICITY":0.0000566,"INCLINATION":96.9552,"RA_OF_ASC_NODE":230.8008,"ARG_OF_PERICENTER":200.2206,"MEAN_ANOMALY":159.9017,"EPHEMERIS_TYPE":0,"NORAD_CAT_ID":41601,"ELEMENT_SET_NO":999,"REV_AT_EPOCH":56288,"BSTAR":0.00013448,"MEAN_MOTION_DOT":0.0000476,"MEAN_MOTION_DDOT":0},{"OBJECT_NAME":"SKYSAT-C4","OBJECT_ID":"2016-058B","EPOCH":"2026-07-19T07:23:02.142816","CLASSIFICATION_TYPE":"U","MEAN_MOTION":15.49519373,"ECCENTRICITY":0.00035402,"INCLINATION":96.917,"RA_OF_ASC_NODE":220.754,"ARG_OF_PERICENTER":112.6543,"MEAN_ANOMALY":247.5084,"EPHEMERIS_TYPE":0,"NORAD_CAT_ID":41771,"ELEMENT_SET_NO":999,"REV_AT_EPOCH":55044,"BSTAR":0.00017512998,"MEAN_MOTION_DOT":0.00009565,"MEAN_MOTION_DDOT":0},{"OBJECT_NAME":"SKYSAT-C5","OBJECT_ID":"2016-058C","EPOCH":"2026-07-19T13:58:52.561056","CLASSIFICATION_TYPE":"U","MEAN_MOTION":15.33753019,"ECCENTRICITY":0.000302,"INCLINATION":97.0451,"RA_OF_ASC_NODE":239.7652,"ARG_OF_PERICENTER":149.7638,"MEAN_ANOMALY":210.3781,"EPHEMERIS_TYPE":0,"NORAD_CAT_ID":41772,"ELEMENT_SET_NO":999,"REV_AT_EPOCH":54871,"BSTAR":0.0001139,"MEAN_MOTION_DOT":0.00003644,"MEAN_MOTION_DDOT":0},{"OBJECT_NAME":"SKYSAT-C2","OBJECT_ID":"2016-058D","EPOCH":"2026-07-19T01:09:40.843296","CLASSIFICATION_TYPE":"U","MEAN_MOTION":15.42733343,"ECCENTRICITY":0.00009173,"INCLINATION":97.0161,"RA_OF_ASC_NODE":220.9571,"ARG_OF_PERICENTER":329.4128,"MEAN_ANOMALY":30.7067,"EPHEMERIS_TYPE":0,"NORAD_CAT_ID":41773,"ELEMENT_SET_NO":999,"REV_AT_EPOCH":54996,"BSTAR":0.00015928038,"MEAN_MOTION_DOT":0.00006875,"MEAN_MOTION_DDOT":0},{"OBJECT_NAME":"SKYSAT-C3","OBJECT_ID":"2016-058E","EPOCH":"2026-07-19T13:10:50.824704","CLASSIFICATION_TYPE":"U","MEAN_MOTION":15.53830199,"ECCENTRICITY":0.0002738,"INCLINATION":96.8996,"RA_OF_ASC_NODE":230.177,"ARG_OF_PERICENTER":128.568,"MEAN_ANOMALY":231.582,"EPHEMERIS_TYPE":0,"NORAD_CAT_ID":41774,"ELEMENT_SET_NO":999,"REV_AT_EPOCH":55113,"BSTAR":0.00021226,"MEAN_MOTION_DOT":0.00013552,"MEAN_MOTION_DDOT":0},{"OBJECT_NAME":"SKYSAT-C11","OBJECT_ID":"2017-068A","EPOCH":"2026-07-19T09:54:24.586848","CLASSIFICATION_TYPE":"U","MEAN_MOTION":15.59473968,"ECCENTRICITY":0.00014208,"INCLINATION":97.439,"RA_OF_ASC_NODE":350.6929,"ARG_OF_PERICENTER":153.6625,"MEAN_ANOMALY":206.4704,"EPHEMERIS_TYPE":0,"NORAD_CAT_ID":42987,"ELEMENT_SET_NO":999,"REV_AT_EPOCH":48826,"BSTAR":0.00021759549,"MEAN_MOTION_DOT":0.00017128,"MEAN_MOTION_DDOT":0},{"OBJECT_NAME":"SKYSAT-C10","OBJECT_ID":"2017-068B","EPOCH":"2026-07-19T19:45:32.248224","CLASSIFICATION_TYPE":"U","MEAN_MOTION":15.35171574,"ECCENTRICITY":0.0001542,"INCLINATION":97.4545,"RA_OF_ASC_NODE":338.0081,"ARG_OF_PERICENTER":111.1835,"MEAN_ANOMALY":248.9573,"EPHEMERIS_TYPE":0,"NORAD_CAT_ID":42988,"ELEMENT_SET_NO":999,"REV_AT_EPOCH":48736,"BSTAR":0.00017695,"MEAN_MOTION_DOT":0.00005958,"MEAN_MOTION_DDOT":0},{"OBJECT_NAME":"SKYSAT-C9","OBJECT_ID":"2017-068C","EPOCH":"2026-07-19T19:35:26.782080","CLASSIFICATION_TYPE":"U","MEAN_MOTION":15.42280897,"ECCENTRICITY":0.0008235,"INCLINATION":97.4468,"RA_OF_ASC_NODE":339.2528,"ARG_OF_PERICENTER":29.6633,"MEAN_ANOMALY":330.508,"EPHEMERIS_TYPE":0,"NORAD_CAT_ID":42989,"ELEMENT_SET_NO":999,"REV_AT_EPOCH":48778,"BSTAR":0.00016403,"MEAN_MOTION_DOT":0.00006975,"MEAN_MOTION_DDOT":0},{"OBJECT_NAME":"SKYSAT-C8","OBJECT_ID":"2017-068D","EPOCH":"2026-07-19T08:29:42.047232","CLASSIFICATION_TYPE":"U","MEAN_MOTION":15.3753912,"ECCENTRICITY":0.0001274,"INCLINATION":97.4564,"RA_OF_ASC_NODE":337.4574,"ARG_OF_PERICENTER":105.5249,"MEAN_ANOMALY":254.6137,"EPHEMERIS_TYPE":0,"NORAD_CAT_ID":42990,"ELEMENT_SET_NO":999,"REV_AT_EPOCH":48725,"BSTAR":0.00015124,"MEAN_MOTION_DOT":0.00005485,"MEAN_MOTION_DDOT":0},{"OBJECT_NAME":"SKYSAT-C7","OBJECT_ID":"2017-068E","EPOCH":"2026-07-19T08:21:56.823840","CLASSIFICATION_TYPE":"U","MEAN_MOTION":15.37488793,"ECCENTRICITY":0.00053212,"INCLINATION":97.4574,"RA_OF_ASC_NODE":338.4439,"ARG_OF_PERICENTER":7.1365,"MEAN_ANOMALY":352.9954,"EPHEMERIS_TYPE":0,"NORAD_CAT_ID":42991,"ELEMENT_SET_NO":999,"REV_AT_EPOCH":48731,"BSTAR":0.00015041426,"MEAN_MOTION_DOT":0.00005447,"MEAN_MOTION_DDOT":0},{"OBJECT_NAME":"SKYSAT-C6","OBJECT_ID":"2017-068F","EPOCH":"2026-07-19T19:46:20.932896","CLASSIFICATION_TYPE":"U","MEAN_MOTION":15.34215968,"ECCENTRICITY":0.0004985,"INCLINATION":97.4612,"RA_OF_ASC_NODE":338.7587,"ARG_OF_PERICENTER":77.331,"MEAN_ANOMALY":282.8489,"EPHEMERIS_TYPE":0,"NORAD_CAT_ID":42992,"ELEMENT_SET_NO":999,"REV_AT_EPOCH":48732,"BSTAR":0.00015267,"MEAN_MOTION_DOT":0.00004976,"MEAN_MOTION_DDOT":0},{"OBJECT_NAME":"SKYSAT-C12","OBJECT_ID":"2018-099AR","EPOCH":"2026-07-19T07:43:05.788992","CLASSIFICATION_TYPE":"U","MEAN_MOTION":15.49872022,"ECCENTRICITY":0.00050296,"INCLINATION":96.9255,"RA_OF_ASC_NODE":222.286,"ARG_OF_PERICENTER":61.0315,"MEAN_ANOMALY":299.1441,"EPHEMERIS_TYPE":0,"NORAD_CAT_ID":43797,"ELEMENT_SET_NO":999,"REV_AT_EPOCH":42683,"BSTAR":0.00017118528,"MEAN_MOTION_DOT":0.00009467,"MEAN_MOTION_DDOT":0}]}
